MONITOR-4 (RS57S)       
1 57182U 23091S   26176.55970557  .00013089  00000+0  47926-3 0  9994
2 57182  97.5079 240.0391 0012826  75.1936 285.0724 15.28084118165571
MONITOR-2 (RS39S)       
1 57184U 23091U   26176.48146355  .00005648  00000+0  27276-3 0  9997
2 57184  97.5073 234.7107 0012769  86.0983 274.1711 15.18981670165215
SVYATOBOR 1 (RS60S)     
1 57187U 23091X   26176.51450604  .00011540  00000+0  44075-3 0  9993
2 57187  97.5092 240.3777 0010590  69.3875 290.8498 15.26746325165581
HORS 1                  
1 57188U 23091Y   26176.56499417  .00011757  00000+0  44751-3 0  9995
2 57188  97.5069 240.1897 0010052  69.3583 290.8732 15.26858559165591
VIZARD-METEO (RS38S)    
1 57189U 23091Z   26176.55072093  .00021755  00000+0  61601-3 0  9994
2 57189  97.5094 246.2041 0007665  52.0534 308.1402 15.36273552165973
SITRO-AIS 6 (CHIRKIN)   
1 57192U 23091AC  26176.50755291  .00013184  00000+0  51274-3 0  9993
2 57192  97.5070 239.5611 0012923  80.8158 279.4542 15.26082158165551
SITRO-AIS 8 (ANOKHIN)   
1 57193U 23091AD  26176.51173460  .00017364  00000+0  55684-3 0  9990
2 57193  97.5059 242.1132 0011466  74.1030 286.1474 15.32343645165729
SITRO-AIS 7 (FARTUSHNIY)
1 57194U 23091AE  26176.51241039  .00012879  00000+0  50576-3 0  9990
2 57194  97.5068 239.3867 0012793  81.7271 278.5417 15.25766361165546
AVION KALUGA 650        
1 57195U 23091AF  26176.52064287  .00007084  00000+0  32734-3 0  9998
2 57195  97.5090 236.0632 0011866  84.3115 275.9473 15.20434178165290
HORS 2                  
1 57196U 23091AG  26176.52479215  .00017002  00000+0  55015-3 0  9998
2 57196  97.5091 243.6684 0008833  62.7655 297.4485 15.32085410165805
A-SEANSAT-PG1           
1 57197U 23091AH  26176.53934333  .00023719  00000+0  65100-3 0  9995
2 57197  97.5084 246.2994 0007644  59.8640 300.3360 15.37229372165999
SITRO-AIS 10 (BURDAEV)  
1 57199U 23091AK  26176.50805763  .00024910  00000+0  64747-3 0  9998
2 57199  97.5083 247.2500 0006823  54.9894 305.1991 15.38907315166040
SITRO-AIS 9 (SHCHUKIN)  
1 57201U 23091AM  26176.53713538  .00024389  00000+0  64435-3 0  9997
2 57201  97.5083 247.0030 0007075  55.0098 305.1810 15.38407270166032
UTMN 2 (RS27S)          
1 57203U 23091AP  26176.48584410  .00016321  00000+0  52575-3 0  9997
2 57203  97.5089 243.8222 0008734  58.8741 301.3357 15.32239281165814
SITRO-AIS 12 (SMIRENNIY)
1 57204U 23091AQ  26176.52616485  .00023535  00000+0  61611-3 0  9997
2 57204  97.5095 247.4643 0006572  49.8892 310.2928 15.38700871166058
SITRO-AIS 11 (SHEFFER)  
1 57208U 23091AU  26176.53726529  .00024597  00000+0  63481-3 0  9999
2 57208  97.5093 247.7276 0006478  49.6117 310.5693 15.39130486166072
H2SAT (HEINRICH HERTZ)  
1 57213U 23093A   26176.31122958  .00000011  00000+0  00000+0 0  9998
2 57213   0.0482 107.4304 0000847  17.0766 261.6799  1.00269986 10999
KUZGTU 1 (RS47S)        
1 57217U 23091AV  26176.53664253  .00016404  00000+0  56510-3 0  9997
2 57217  97.5068 241.1017 0011959  72.1533 288.1010 15.30036915165657
QIANKUN-1               
1 57422U 23103B   26175.14190629  .00029952  20502-5  35191-4 0  9996
2 57422  96.1516 219.4975 0033653 146.3074 214.0360 16.07644797168419
FENGYUN 3F              
1 57490U 23111A   26176.64144502  .00000038  00000+0  38282-4 0  9998
2 57490  98.6834 246.4927 0001560  87.0481 273.0874 14.19940391150063
HJ-2F                   
1 57519U 23116A   26176.60004725  .00008817  00000+0  38376-3 0  9999
2 57519  97.3843 181.6721 0008952  26.4223 333.7469 15.22431605160036
XRISM                   
1 57800U 23137A   26176.50584643  .00005024  00000+0  27565-3 0  9991
2 57800  31.0027 305.7147 0007796  47.4275 312.7021 15.12532699154122
METEOR-M2 4             
1 59051U 24039A   26176.62447576  .00000008  00000+0  23288-4 0  9995
2 59051  98.7013 135.8166 0007748 138.2102 221.9669 14.22430351120466
GRBBETA                 
1 60237U 24128C   26176.51596108  .00003519  00000+0  24623-3 0  9999
2 60237  61.9879 187.0432 0039574 136.4122 224.0109 15.06684345107527
TRANSPORTER-11 OBJECT A 
1 60468U 24149A   26176.18237998  .00010205  00000+0  32220-3 0  9992
2 60468  97.3731 256.0873 0003606 167.2224 192.9110 15.33025007103289
WARATAH SEED-1          
1 60469U 24149B   26176.18909448  .00015597  00000+0  44504-3 0  9996
2 60469  97.3691 256.7716 0002215 158.5761 201.5576 15.36127248103345
PHISAT 2                
1 60470U 24149C   26176.47799866  .00008138  00000+0  27287-3 0  9993
2 60470  97.3756 255.6482 0001894 157.3441 202.7884 15.31164317103260
LEMUR-2-TOMATOKECHUP    
1 60471U 24149D   26176.51064173  .00013614  00000+0  38804-3 0  9997
2 60471  97.3803 258.5789 0002174 159.6336 200.4995 15.36192816103444
CONNECTA IOT-1          
1 60472U 24149E   26176.17419093  .00004277  00000+0  18166-3 0  9999
2 60472  97.3758 252.3306 0000898 191.3012 168.8205 15.23595578103018
